ORBCOMM FM06            
1 25118U 97084G   26190.63171980  .00000771  00000+0  24654-3 0  9996
2 25118  45.0146 304.6600 0001102 214.6774 160.3014 14.47619518497644
ORBCOMM FM04            
1 25159U 98007C   26190.34146903  .00000477  00000+0  20869-3 0  9999
2 25159 107.9632 215.0175 0041866 286.8433  72.8118 14.35778345479770
ORBCOMM FM19            
1 25415U 98046C   26191.20609291  .00000594  00000+0  23394-3 0  9993
2 25415  44.9928 134.1392 0003462  30.9651 103.8749 14.39535701460096
ORBCOMM FM20            
1 25416U 98046D   26191.21584404  .00000397  00000+0  17621-3 0  9990
2 25416  44.9930 142.2702 0001847 332.3533  27.7217 14.38095254460107
ORBCOMM FM27            
1 25481U 98053G   26191.09529278  .00000395  00000+0  17215-3 0  9991
2 25481  45.0036 226.5447 0002443 273.4638  86.5931 14.39179836453539
ORBCOMM FM32            
1 25982U 99065C   26191.02183145  .00000390  00000+0  17720-3 0  9999
2 25982  45.0156  65.1518 0005209 166.5641 193.5347 14.37163656390376
ORBCOMM FM109           
1 40086U 14040A   26190.69900916  .00000205  00000+0  79544-4 0  9994
2 40086  47.0045 345.0517 0001708 305.9995  54.0732 14.58869106637635
ORBCOMM FM110           
1 41182U 15081D   26190.22459969  .00000335  00000+0  10694-3 0  9998
2 41182  47.0014 257.2427 0003297 196.7550 163.3228 14.58913742560849
ORBCOMM FM118           
1 41183U 15081E   26191.14927477  .00000141  00000+0  65989-4 0  9998
2 41183  47.0031 253.2067 0002623 161.7735 198.3246 14.58901602561081
ORBCOMM FM112           
1 41184U 15081F   26191.29035671  .00000442  00000+0  12957-3 0  9991
2 41184  46.9976 160.9948 0003938 308.3890  51.6642 14.58933988562322
ORBCOMM FM113           
1 41185U 15081G   26191.26776814  .00000194  00000+0  77226-4 0  9995
2 41185  46.9994 161.4897 0002464 302.9877  57.0772 14.58878981562303
ORBCOMM FM108           
1 41187U 15081J   26191.02440328  .00000361  00000+0  11244-3 0  9992
2 41187  47.0051  74.2206 0002921 303.4957  56.5649 14.58905478563411
ORBCOMM FM117           
1 41188U 15081K   26191.05857778  .00000340  00000+0  10812-3 0  9994
2 41188  47.0014  72.6872 0003291 309.5153  50.5441 14.58892851563467
ORBCOMM FM116           
1 41189U 15081L   26190.62784344  .00000100  00000+0  57341-4 0  9998
2 41189  47.0010 164.5128 0001341 214.5781 145.5017 14.58902220562213
